[{"OBJECT_NAME":"ONEWEB-0444","OBJECT_ID":"2022-012S","EPOCH":"2026-02-25T00:04:36.481728","MEAN_MOTION":13.10370513,"ECCENTRICITY":0.0001804,"INCLINATION":87.8755,"RA_OF_ASC_NODE":58.6137,"ARG_OF_PERICENTER":89.9042,"MEAN_ANOMALY":270.2292,"EPHEMERIS_TYPE":0,"CLASSIFICATION_TYPE":"U","NORAD_CAT_ID":51638,"ELEMENT_SET_NO":999,"REV_AT_EPOCH":19464,"BSTAR":0.0013708,"MEAN_MOTION_DOT":4.91e-6,"MEAN_MOTION_DDOT":0},{"OBJECT_NAME":"ONEWEB-0445","OBJECT_ID":"2022-012T","EPOCH":"2026-02-24T11:45:58.634208","MEAN_MOTION":13.10371634,"ECCENTRICITY":0.00020805,"INCLINATION":87.8768,"RA_OF_ASC_NODE":58.6939,"ARG_OF_PERICENTER":91.0304,"MEAN_ANOMALY":269.1062,"EPHEMERIS_TYPE":0,"CLASSIFICATION_TYPE":"U","NORAD_CAT_ID":51639,"ELEMENT_SET_NO":999,"REV_AT_EPOCH":19458,"BSTAR":-0.0017299407,"MEAN_MOTION_DOT":-5.91e-6,"MEAN_MOTION_DDOT":0},{"OBJECT_NAME":"ONEWEB-0446","OBJECT_ID":"2022-012U","EPOCH":"2026-02-25T01:52:10.350048","MEAN_MOTION":13.10371298,"ECCENTRICITY":0.0002021,"INCLINATION":87.8751,"RA_OF_ASC_NODE":58.6149,"ARG_OF_PERICENTER":88.5012,"MEAN_ANOMALY":271.6346,"EPHEMERIS_TYPE":0,"CLASSIFICATION_TYPE":"U","NORAD_CAT_ID":51640,"ELEMENT_SET_NO":999,"REV_AT_EPOCH":19464,"BSTAR":0.0011466,"MEAN_MOTION_DOT":4.13e-6,"MEAN_MOTION_DDOT":0},{"OBJECT_NAME":"ONEWEB-0448","OBJECT_ID":"2022-012V","EPOCH":"2026-02-25T00:09:23.035104","MEAN_MOTION":13.10370346,"ECCENTRICITY":0.000182,"INCLINATION":87.8753,"RA_OF_ASC_NODE":58.6276,"ARG_OF_PERICENTER":90.3155,"MEAN_ANOMALY":269.8181,"EPHEMERIS_TYPE":0,"CLASSIFICATION_TYPE":"U","NORAD_CAT_ID":51641,"ELEMENT_SET_NO":999,"REV_AT_EPOCH":19460,"BSTAR":0.00077221,"MEAN_MOTION_DOT":2.82e-6,"MEAN_MOTION_DDOT":0},{"OBJECT_NAME":"ONEWEB-0449","OBJECT_ID":"2022-012W","EPOCH":"2026-02-25T00:16:32.829312","MEAN_MOTION":13.10369891,"ECCENTRICITY":0.0001736,"INCLINATION":87.876,"RA_OF_ASC_NODE":58.604,"ARG_OF_PERICENTER":74.5311,"MEAN_ANOMALY":285.6008,"EPHEMERIS_TYPE":0,"CLASSIFICATION_TYPE":"U","NORAD_CAT_ID":51642,"ELEMENT_SET_NO":999,"REV_AT_EPOCH":19461,"BSTAR":-4.1025e-5,"MEAN_MOTION_DOT":-2.0e-8,"MEAN_MOTION_DDOT":0},{"OBJECT_NAME":"ONEWEB-0451","OBJECT_ID":"2022-012X","EPOCH":"2026-02-24T21:34:55.724448","MEAN_MOTION":13.1764801,"ECCENTRICITY":0.0001808,"INCLINATION":87.9129,"RA_OF_ASC_NODE":28.1329,"ARG_OF_PERICENTER":79.4309,"MEAN_ANOMALY":280.7026,"EPHEMERIS_TYPE":0,"CLASSIFICATION_TYPE":"U","NORAD_CAT_ID":51643,"ELEMENT_SET_NO":999,"REV_AT_EPOCH":19887,"BSTAR":9.3997e-5,"MEAN_MOTION_DOT":4.9e-7,"MEAN_MOTION_DDOT":0},{"OBJECT_NAME":"ONEWEB-0452","OBJECT_ID":"2022-012Y","EPOCH":"2026-02-24T21:32:30.282144","MEAN_MOTION":13.17648303,"ECCENTRICITY":0.0001626,"INCLINATION":87.9124,"RA_OF_ASC_NODE":28.1807,"ARG_OF_PERICENTER":76.0872,"MEAN_ANOMALY":284.044,"EPHEMERIS_TYPE":0,"CLASSIFICATION_TYPE":"U","NORAD_CAT_ID":51644,"ELEMENT_SET_NO":999,"REV_AT_EPOCH":19888,"BSTAR":2.989e-5,"MEAN_MOTION_DOT":2.4e-7,"MEAN_MOTION_DDOT":0},{"OBJECT_NAME":"ONEWEB-0456","OBJECT_ID":"2022-012AA","EPOCH":"2026-02-24T22:40:54.672672","MEAN_MOTION":13.10371014,"ECCENTRICITY":0.0001795,"INCLINATION":87.8772,"RA_OF_ASC_NODE":58.5947,"ARG_OF_PERICENTER":93.6547,"MEAN_ANOMALY":266.4785,"EPHEMERIS_TYPE":0,"CLASSIFICATION_TYPE":"U","NORAD_CAT_ID":51646,"ELEMENT_SET_NO":999,"REV_AT_EPOCH":19464,"BSTAR":-0.0013156,"MEAN_MOTION_DOT":-4.47e-6,"MEAN_MOTION_DDOT":0},{"OBJECT_NAME":"ONEWEB-0457","OBJECT_ID":"2022-012AB","EPOCH":"2026-02-24T18:27:35.972640","MEAN_MOTION":13.10373631,"ECCENTRICITY":0.00022291,"INCLINATION":87.8752,"RA_OF_ASC_NODE":58.6641,"ARG_OF_PERICENTER":81.7948,"MEAN_ANOMALY":278.3432,"EPHEMERIS_TYPE":0,"CLASSIFICATION_TYPE":"U","NORAD_CAT_ID":51647,"ELEMENT_SET_NO":999,"REV_AT_EPOCH":19462,"BSTAR":0.0016182891,"MEAN_MOTION_DOT":5.78e-6,"MEAN_MOTION_DDOT":0},{"OBJECT_NAME":"ONEWEB-0458","OBJECT_ID":"2022-012AC","EPOCH":"2026-02-24T17:08:40.400736","MEAN_MOTION":13.10370274,"ECCENTRICITY":0.00017365,"INCLINATION":87.8762,"RA_OF_ASC_NODE":58.6552,"ARG_OF_PERICENTER":86.4028,"MEAN_ANOMALY":273.7298,"EPHEMERIS_TYPE":0,"CLASSIFICATION_TYPE":"U","NORAD_CAT_ID":51648,"ELEMENT_SET_NO":999,"REV_AT_EPOCH":19457,"BSTAR":-0.0014148696,"MEAN_MOTION_DOT":-4.81e-6,"MEAN_MOTION_DDOT":0},{"OBJECT_NAME":"ONEWEB-0461","OBJECT_ID":"2022-012AD","EPOCH":"2026-02-24T23:53:25.616832","MEAN_MOTION":13.17649276,"ECCENTRICITY":0.0002041,"INCLINATION":87.9137,"RA_OF_ASC_NODE":28.1287,"ARG_OF_PERICENTER":82.5701,"MEAN_ANOMALY":277.5662,"EPHEMERIS_TYPE":0,"CLASSIFICATION_TYPE":"U","NORAD_CAT_ID":51649,"ELEMENT_SET_NO":999,"REV_AT_EPOCH":19911,"BSTAR":0.0001364,"MEAN_MOTION_DOT":6.6e-7,"MEAN_MOTION_DDOT":0},{"OBJECT_NAME":"ONEWEB-0463","OBJECT_ID":"2022-012AE","EPOCH":"2026-02-24T21:37:21.613440","MEAN_MOTION":13.17647611,"ECCENTRICITY":0.0002025,"INCLINATION":87.9122,"RA_OF_ASC_NODE":28.1812,"ARG_OF_PERICENTER":83.3018,"MEAN_ANOMALY":276.8344,"EPHEMERIS_TYPE":0,"CLASSIFICATION_TYPE":"U","NORAD_CAT_ID":51650,"ELEMENT_SET_NO":999,"REV_AT_EPOCH":19888,"BSTAR":-3.1583e-5,"MEAN_MOTION_DOT":1.0e-8,"MEAN_MOTION_DDOT":0},{"OBJECT_NAME":"ONEWEB-0464","OBJECT_ID":"2022-012AF","EPOCH":"2026-02-24T11:34:01.534944","MEAN_MOTION":13.10370523,"ECCENTRICITY":0.0001686,"INCLINATION":87.8752,"RA_OF_ASC_NODE":58.7311,"ARG_OF_PERICENTER":96.188,"MEAN_ANOMALY":263.944,"EPHEMERIS_TYPE":0,"CLASSIFICATION_TYPE":"U","NORAD_CAT_ID":51651,"ELEMENT_SET_NO":999,"REV_AT_EPOCH":19456,"BSTAR":-0.0010610755,"MEAN_MOTION_DOT":-3.58e-6,"MEAN_MOTION_DDOT":0},{"OBJECT_NAME":"ONEWEB-0468","OBJECT_ID":"2022-012AG","EPOCH":"2026-02-24T22:43:17.936832","MEAN_MOTION":13.10374215,"ECCENTRICITY":0.0001585,"INCLINATION":87.8755,"RA_OF_ASC_NODE":58.6324,"ARG_OF_PERICENTER":97.0621,"MEAN_ANOMALY":263.0686,"EPHEMERIS_TYPE":0,"CLASSIFICATION_TYPE":"U","NORAD_CAT_ID":51652,"ELEMENT_SET_NO":999,"REV_AT_EPOCH":19460,"BSTAR":-0.0014632,"MEAN_MOTION_DOT":-4.98e-6,"MEAN_MOTION_DDOT":0},{"OBJECT_NAME":"ONEWEB-0473","OBJECT_ID":"2022-012AH","EPOCH":"2026-02-25T02:01:43.519008","MEAN_MOTION":13.10369402,"ECCENTRICITY":0.0001718,"INCLINATION":87.875,"RA_OF_ASC_NODE":58.6067,"ARG_OF_PERICENTER":88.4419,"MEAN_ANOMALY":271.6905,"EPHEMERIS_TYPE":0,"CLASSIFICATION_TYPE":"U","NORAD_CAT_ID":51653,"ELEMENT_SET_NO":999,"REV_AT_EPOCH":19462,"BSTAR":0.00027394,"MEAN_MOTION_DOT":1.08e-6,"MEAN_MOTION_DDOT":0},{"OBJECT_NAME":"ONEWEB-0474","OBJECT_ID":"2022-012AJ","EPOCH":"2026-02-25T01:49:47.161920","MEAN_MOTION":13.10369709,"ECCENTRICITY":0.000165,"INCLINATION":87.8762,"RA_OF_ASC_NODE":58.5821,"ARG_OF_PERICENTER":95.2556,"MEAN_ANOMALY":264.876,"EPHEMERIS_TYPE":0,"CLASSIFICATION_TYPE":"U","NORAD_CAT_ID":51654,"ELEMENT_SET_NO":999,"REV_AT_EPOCH":19461,"BSTAR":0.0012481,"MEAN_MOTION_DOT":4.48e-6,"MEAN_MOTION_DDOT":0},{"OBJECT_NAME":"ONEWEB-0475","OBJECT_ID":"2022-012AK","EPOCH":"2026-02-24T09:08:55.583232","MEAN_MOTION":13.17648309,"ECCENTRICITY":0.00011823,"INCLINATION":87.9125,"RA_OF_ASC_NODE":28.2762,"ARG_OF_PERICENTER":85.0717,"MEAN_ANOMALY":275.0549,"EPHEMERIS_TYPE":0,"CLASSIFICATION_TYPE":"U","NORAD_CAT_ID":51655,"ELEMENT_SET_NO":999,"REV_AT_EPOCH":19883,"BSTAR":0.00025355672,"MEAN_MOTION_DOT":1.11e-6,"MEAN_MOTION_DDOT":0},{"OBJECT_NAME":"ONEWEB-0490","OBJECT_ID":"2022-138A","EPOCH":"2026-02-25T03:40:34.496256","MEAN_MOTION":13.19725044,"ECCENTRICITY":0.0001676,"INCLINATION":87.9251,"RA_OF_ASC_NODE":327.276,"ARG_OF_PERICENTER":85.7547,"MEAN_ANOMALY":274.3777,"EPHEMERIS_TYPE":0,"CLASSIFICATION_TYPE":"U","NORAD_CAT_ID":54113,"ELEMENT_SET_NO":999,"REV_AT_EPOCH":16205,"BSTAR":0.00018363,"MEAN_MOTION_DOT":8.6e-7,"MEAN_MOTION_DDOT":0},{"OBJECT_NAME":"ONEWEB-0492","OBJECT_ID":"2022-138B","EPOCH":"2026-02-25T04:16:58.123200","MEAN_MOTION":13.19725326,"ECCENTRICITY":0.0001796,"INCLINATION":87.9246,"RA_OF_ASC_NODE":327.2797,"ARG_OF_PERICENTER":85.5985,"MEAN_ANOMALY":274.5353,"EPHEMERIS_TYPE":0,"CLASSIFICATION_TYPE":"U","NORAD_CAT_ID":54114,"ELEMENT_SET_NO":999,"REV_AT_EPOCH":16206,"BSTAR":0.00034456,"MEAN_MOTION_DOT":1.51e-6,"MEAN_MOTION_DDOT":0},{"OBJECT_NAME":"ONEWEB-0495","OBJECT_ID":"2022-138C","EPOCH":"2026-02-25T03:45:07.565184","MEAN_MOTION":13.19726564,"ECCENTRICITY":0.000144,"INCLINATION":87.9243,"RA_OF_ASC_NODE":327.2855,"ARG_OF_PERICENTER":102.7761,"MEAN_ANOMALY":257.3533,"EPHEMERIS_TYPE":0,"CLASSIFICATION_TYPE":"U","NORAD_CAT_ID":54115,"ELEMENT_SET_NO":999,"REV_AT_EPOCH":16204,"BSTAR":0.00010602,"MEAN_MOTION_DOT":5.5e-7,"MEAN_MOTION_DDOT":0},{"OBJECT_NAME":"ONEWEB-0497","OBJECT_ID":"2022-138D","EPOCH":"2026-02-25T04:03:19.008864","MEAN_MOTION":13.19724957,"ECCENTRICITY":0.0001713,"INCLINATION":87.9247,"RA_OF_ASC_NODE":327.2735,"ARG_OF_PERICENTER":81.6461,"MEAN_ANOMALY":278.4866,"EPHEMERIS_TYPE":0,"CLASSIFICATION_TYPE":"U","NORAD_CAT_ID":54116,"ELEMENT_SET_NO":999,"REV_AT_EPOCH":16203,"BSTAR":0.00015669,"MEAN_MOTION_DOT":7.6e-7,"MEAN_MOTION_DDOT":0},{"OBJECT_NAME":"ONEWEB-0499","OBJECT_ID":"2022-138E","EPOCH":"2026-02-25T03:39:25.896384","MEAN_MOTION":13.19724903,"ECCENTRICITY":0.0001534,"INCLINATION":87.924,"RA_OF_ASC_NODE":327.2881,"ARG_OF_PERICENTER":79.9415,"MEAN_ANOMALY":280.189,"EPHEMERIS_TYPE":0,"CLASSIFICATION_TYPE":"U","NORAD_CAT_ID":54117,"ELEMENT_SET_NO":999,"REV_AT_EPOCH":16204,"BSTAR":0.00015801,"MEAN_MOTION_DOT":7.6e-7,"MEAN_MOTION_DDOT":0},{"OBJECT_NAME":"ONEWEB-0500","OBJECT_ID":"2022-138F","EPOCH":"2026-02-25T03:42:50.965920","MEAN_MOTION":13.19726267,"ECCENTRICITY":0.0001813,"INCLINATION":87.9247,"RA_OF_ASC_NODE":327.2758,"ARG_OF_PERICENTER":79.5057,"MEAN_ANOMALY":280.628,"EPHEMERIS_TYPE":0,"CLASSIFICATION_TYPE":"U","NORAD_CAT_ID":54118,"ELEMENT_SET_NO":999,"REV_AT_EPOCH":16205,"BSTAR":0.00010566,"MEAN_MOTION_DOT":5.5e-7,"MEAN_MOTION_DDOT":0},{"OBJECT_NAME":"ONEWEB-0501","OBJECT_ID":"2022-138G","EPOCH":"2026-02-25T04:26:04.347456","MEAN_MOTION":13.19725114,"ECCENTRICITY":0.0001478,"INCLINATION":87.9247,"RA_OF_ASC_NODE":327.2709,"ARG_OF_PERICENTER":91.7951,"MEAN_ANOMALY":268.3351,"EPHEMERIS_TYPE":0,"CLASSIFICATION_TYPE":"U","NORAD_CAT_ID":54119,"ELEMENT_SET_NO":999,"REV_AT_EPOCH":16203,"BSTAR":9.3753e-5,"MEAN_MOTION_DOT":5.0e-7,"MEAN_MOTION_DDOT":0}]
